STARLINK-6189           
1 56377U 23061D   26083.25002315 -.00019204  00000+0 -70785-3 0  9994
2 56377  42.9995 115.8131 0001198 288.9314 114.3094 15.26751619  5585
STARLINK-6191           
1 56378U 23061E   26082.79951905 -.00000817  00000+0 -20787-4 0  9999
2 56378  43.0004 117.6895 0000853 273.3424  86.7330 15.26738091158913
STARLINK-6157           
1 56379U 23061F   26082.80908386 -.00003400  00000+0 -11710-3 0  9993
2 56379  43.0008 117.7644 0001167 256.8123 103.2599 15.26746231160013
STARLINK-6159           
1 56381U 23061H   26083.25002315 -.00012581  00000+0 -45997-3 0  9997
2 56381  42.9999 115.9492 0001385 283.7705  60.3243 15.26750125  5789
STARLINK-6160           
1 56382U 23061J   26083.25002315  .00027438  00000+0  10317-2 0  9990
2 56382  42.9993 115.8786 0001595 287.2646  84.9779 15.26645232  5783
STARLINK-6166           
1 56383U 23061K   26083.25002315 -.00018979  00000+0 -69946-3 0  9996
2 56383  43.0011 115.6025 0001458 276.3493 213.8156 15.26749565  5728
STARLINK-6153           
1 56384U 23061L   26083.25002315 -.00015819  00000+0 -58118-3 0  9996
2 56384  43.0012 115.4960 0001298 268.9298 265.2015 15.26745963  5822
STARLINK-6173           
1 56385U 23061M   26083.25002315 -.00016781  00000+0 -61715-3 0  9993
2 56385  43.0013 115.5179 0001547 268.5030 256.6357 15.26748269  5830
STARLINK-5836           
1 56386U 23061N   26083.25002315  .00015816  00000+0  59841-3 0  9997
2 56386  43.0011 115.5474 0001829 274.6692 236.1995 15.26720070  5822
STARLINK-6178           
1 56387U 23061P   26082.48517029 -.00000605  00000+0 -12869-4 0  9997
2 56387  43.0010 119.6270 0000565 259.9445 100.1343 15.26740625158867
STARLINK-6176           
1 56388U 23061Q   26083.25002315  .00033863  00000+0  12378-2 0  9994
2 56388  42.9994 116.0391 0002059 268.3523  31.3227 15.27489432  5834
STARLINK-6145           
1 56389U 23061R   26083.25002315  .00023969  00000+0  92133-3 0  9999
2 56389  42.9991 115.8446 0001684 288.7616  96.1339 15.25976123  5684
STARLINK-6298           
1 56391U 23061T   26082.80724129 -.00000407  00000+0 -55023-5 0  9999
2 56391  42.9997 117.7411 0001216 261.9897  98.0816 15.26725704158915
STARLINK-6301           
1 56392U 23061U   26083.25002315  .00019106  00000+0  84417-3 0  9997
2 56392  42.9995 104.5584 0001920 275.8872 110.6602 15.21392530  5623
STARLINK-6303           
1 56393U 23061V   26083.25002315 -.00007866  00000+0 -28383-3 0  9990
2 56393  43.0004 115.3858 0001284 263.7898 315.4042 15.26746577  5776
STARLINK-6305           
1 56394U 23061W   26083.25002315 -.00010733  00000+0 -39116-3 0  9994
2 56394  43.0001 104.0947 0000958 282.2654 300.1861 15.26730433  5775
