[{"OBJECT_NAME":"STARLINK-6189","OBJECT_ID":"2023-061D","EPOCH":"2026-03-24T06:00:02.000160","MEAN_MOTION":15.26751619,"ECCENTRICITY":0.0001198,"INCLINATION":42.9995,"RA_OF_ASC_NODE":115.8131,"ARG_OF_PERICENTER":288.9314,"MEAN_ANOMALY":114.3094,"EPHEMERIS_TYPE":0,"CLASSIFICATION_TYPE":"U","NORAD_CAT_ID":56377,"ELEMENT_SET_NO":999,"REV_AT_EPOCH":558,"BSTAR":-0.00070785189,"MEAN_MOTION_DOT":-0.00019204,"MEAN_MOTION_DDOT":0},{"OBJECT_NAME":"STARLINK-6191","OBJECT_ID":"2023-061E","EPOCH":"2026-03-23T19:11:18.445920","MEAN_MOTION":15.26738091,"ECCENTRICITY":8.534e-5,"INCLINATION":43.0004,"RA_OF_ASC_NODE":117.6895,"ARG_OF_PERICENTER":273.3424,"MEAN_ANOMALY":86.733,"EPHEMERIS_TYPE":0,"CLASSIFICATION_TYPE":"U","NORAD_CAT_ID":56378,"ELEMENT_SET_NO":999,"REV_AT_EPOCH":15891,"BSTAR":-2.0787327e-5,"MEAN_MOTION_DOT":-8.17e-6,"MEAN_MOTION_DDOT":0},{"OBJECT_NAME":"STARLINK-6157","OBJECT_ID":"2023-061F","EPOCH":"2026-03-23T19:25:04.845504","MEAN_MOTION":15.26746231,"ECCENTRICITY":0.00011676,"INCLINATION":43.0008,"RA_OF_ASC_NODE":117.7644,"ARG_OF_PERICENTER":256.8123,"MEAN_ANOMALY":103.2599,"EPHEMERIS_TYPE":0,"CLASSIFICATION_TYPE":"U","NORAD_CAT_ID":56379,"ELEMENT_SET_NO":999,"REV_AT_EPOCH":16001,"BSTAR":-0.00011709921,"MEAN_MOTION_DOT":-3.4e-5,"MEAN_MOTION_DDOT":0},{"OBJECT_NAME":"STARLINK-6159","OBJECT_ID":"2023-061H","EPOCH":"2026-03-24T06:00:02.000160","MEAN_MOTION":15.26750125,"ECCENTRICITY":0.00013856,"INCLINATION":42.9999,"RA_OF_ASC_NODE":115.9492,"ARG_OF_PERICENTER":283.7705,"MEAN_ANOMALY":60.3243,"EPHEMERIS_TYPE":0,"CLASSIFICATION_TYPE":"U","NORAD_CAT_ID":56381,"ELEMENT_SET_NO":999,"REV_AT_EPOCH":578,"BSTAR":-0.00045996774,"MEAN_MOTION_DOT":-0.00012581,"MEAN_MOTION_DDOT":0},{"OBJECT_NAME":"STARLINK-6160","OBJECT_ID":"2023-061J","EPOCH":"2026-03-24T06:00:02.000160","MEAN_MOTION":15.26645232,"ECCENTRICITY":0.00015952,"INCLINATION":42.9993,"RA_OF_ASC_NODE":115.8786,"ARG_OF_PERICENTER":287.2646,"MEAN_ANOMALY":84.9779,"EPHEMERIS_TYPE":0,"CLASSIFICATION_TYPE":"U","NORAD_CAT_ID":56382,"ELEMENT_SET_NO":999,"REV_AT_EPOCH":578,"BSTAR":0.0010316957,"MEAN_MOTION_DOT":0.00027438,"MEAN_MOTION_DDOT":0},{"OBJECT_NAME":"STARLINK-6166","OBJECT_ID":"2023-061K","EPOCH":"2026-03-24T06:00:02.000160","MEAN_MOTION":15.26749565,"ECCENTRICITY":0.00014583,"INCLINATION":43.0011,"RA_OF_ASC_NODE":115.6025,"ARG_OF_PERICENTER":276.3493,"MEAN_ANOMALY":213.8156,"EPHEMERIS_TYPE":0,"CLASSIFICATION_TYPE":"U","NORAD_CAT_ID":56383,"ELEMENT_SET_NO":999,"REV_AT_EPOCH":572,"BSTAR":-0.00069945704,"MEAN_MOTION_DOT":-0.00018979,"MEAN_MOTION_DDOT":0},{"OBJECT_NAME":"STARLINK-6153","OBJECT_ID":"2023-061L","EPOCH":"2026-03-24T06:00:02.000160","MEAN_MOTION":15.26745963,"ECCENTRICITY":0.00012981,"INCLINATION":43.0012,"RA_OF_ASC_NODE":115.496,"ARG_OF_PERICENTER":268.9298,"MEAN_ANOMALY":265.2015,"EPHEMERIS_TYPE":0,"CLASSIFICATION_TYPE":"U","NORAD_CAT_ID":56384,"ELEMENT_SET_NO":999,"REV_AT_EPOCH":582,"BSTAR":-0.00058118323,"MEAN_MOTION_DOT":-0.00015819,"MEAN_MOTION_DDOT":0},{"OBJECT_NAME":"STARLINK-6173","OBJECT_ID":"2023-061M","EPOCH":"2026-03-24T06:00:02.000160","MEAN_MOTION":15.26748269,"ECCENTRICITY":0.00015476,"INCLINATION":43.0013,"RA_OF_ASC_NODE":115.5179,"ARG_OF_PERICENTER":268.503,"MEAN_ANOMALY":256.6357,"EPHEMERIS_TYPE":0,"CLASSIFICATION_TYPE":"U","NORAD_CAT_ID":56385,"ELEMENT_SET_NO":999,"REV_AT_EPOCH":583,"BSTAR":-0.00061714591,"MEAN_MOTION_DOT":-0.00016781,"MEAN_MOTION_DDOT":0},{"OBJECT_NAME":"STARLINK-5836","OBJECT_ID":"2023-061N","EPOCH":"2026-03-24T06:00:02.000160","MEAN_MOTION":15.2672007,"ECCENTRICITY":0.00018295,"INCLINATION":43.0011,"RA_OF_ASC_NODE":115.5474,"ARG_OF_PERICENTER":274.6692,"MEAN_ANOMALY":236.1995,"EPHEMERIS_TYPE":0,"CLASSIFICATION_TYPE":"U","NORAD_CAT_ID":56386,"ELEMENT_SET_NO":999,"REV_AT_EPOCH":582,"BSTAR":0.00059840729,"MEAN_MOTION_DOT":0.00015816,"MEAN_MOTION_DDOT":0},{"OBJECT_NAME":"STARLINK-6178","OBJECT_ID":"2023-061P","EPOCH":"2026-03-23T11:38:38.713056","MEAN_MOTION":15.26740625,"ECCENTRICITY":5.655e-5,"INCLINATION":43.001,"RA_OF_ASC_NODE":119.627,"ARG_OF_PERICENTER":259.9445,"MEAN_ANOMALY":100.1343,"EPHEMERIS_TYPE":0,"CLASSIFICATION_TYPE":"U","NORAD_CAT_ID":56387,"ELEMENT_SET_NO":999,"REV_AT_EPOCH":15886,"BSTAR":-1.2869376e-5,"MEAN_MOTION_DOT":-6.05e-6,"MEAN_MOTION_DDOT":0},{"OBJECT_NAME":"STARLINK-6176","OBJECT_ID":"2023-061Q","EPOCH":"2026-03-24T06:00:02.000160","MEAN_MOTION":15.27489432,"ECCENTRICITY":0.00020595,"INCLINATION":42.9994,"RA_OF_ASC_NODE":116.0391,"ARG_OF_PERICENTER":268.3523,"MEAN_ANOMALY":31.3227,"EPHEMERIS_TYPE":0,"CLASSIFICATION_TYPE":"U","NORAD_CAT_ID":56388,"ELEMENT_SET_NO":999,"REV_AT_EPOCH":583,"BSTAR":0.0012378113,"MEAN_MOTION_DOT":0.00033863,"MEAN_MOTION_DDOT":0},{"OBJECT_NAME":"STARLINK-6145","OBJECT_ID":"2023-061R","EPOCH":"2026-03-24T06:00:02.000160","MEAN_MOTION":15.25976123,"ECCENTRICITY":0.00016849,"INCLINATION":42.9991,"RA_OF_ASC_NODE":115.8446,"ARG_OF_PERICENTER":288.7616,"MEAN_ANOMALY":96.1339,"EPHEMERIS_TYPE":0,"CLASSIFICATION_TYPE":"U","NORAD_CAT_ID":56389,"ELEMENT_SET_NO":999,"REV_AT_EPOCH":568,"BSTAR":0.00092133124,"MEAN_MOTION_DOT":0.00023969,"MEAN_MOTION_DDOT":0},{"OBJECT_NAME":"STARLINK-6298","OBJECT_ID":"2023-061T","EPOCH":"2026-03-23T19:22:25.647456","MEAN_MOTION":15.26725704,"ECCENTRICITY":0.0001216,"INCLINATION":42.9997,"RA_OF_ASC_NODE":117.7411,"ARG_OF_PERICENTER":261.9897,"MEAN_ANOMALY":98.0816,"EPHEMERIS_TYPE":0,"CLASSIFICATION_TYPE":"U","NORAD_CAT_ID":56391,"ELEMENT_SET_NO":999,"REV_AT_EPOCH":15891,"BSTAR":-5.502282e-6,"MEAN_MOTION_DOT":-4.07e-6,"MEAN_MOTION_DDOT":0},{"OBJECT_NAME":"STARLINK-6301","OBJECT_ID":"2023-061U","EPOCH":"2026-03-24T06:00:02.000160","MEAN_MOTION":15.2139253,"ECCENTRICITY":0.000192,"INCLINATION":42.9995,"RA_OF_ASC_NODE":104.5584,"ARG_OF_PERICENTER":275.8872,"MEAN_ANOMALY":110.6602,"EPHEMERIS_TYPE":0,"CLASSIFICATION_TYPE":"U","NORAD_CAT_ID":56392,"ELEMENT_SET_NO":999,"REV_AT_EPOCH":562,"BSTAR":0.00084417465,"MEAN_MOTION_DOT":0.00019106,"MEAN_MOTION_DDOT":0},{"OBJECT_NAME":"STARLINK-6303","OBJECT_ID":"2023-061V","EPOCH":"2026-03-24T06:00:02.000160","MEAN_MOTION":15.26746577,"ECCENTRICITY":0.00012848,"INCLINATION":43.0004,"RA_OF_ASC_NODE":115.3858,"ARG_OF_PERICENTER":263.7898,"MEAN_ANOMALY":315.4042,"EPHEMERIS_TYPE":0,"CLASSIFICATION_TYPE":"U","NORAD_CAT_ID":56393,"ELEMENT_SET_NO":999,"REV_AT_EPOCH":577,"BSTAR":-0.00028383073,"MEAN_MOTION_DOT":-7.866e-5,"MEAN_MOTION_DDOT":0},{"OBJECT_NAME":"STARLINK-6305","OBJECT_ID":"2023-061W","EPOCH":"2026-03-24T06:00:02.000160","MEAN_MOTION":15.26730433,"ECCENTRICITY":9.583e-5,"INCLINATION":43.0001,"RA_OF_ASC_NODE":104.0947,"ARG_OF_PERICENTER":282.2654,"MEAN_ANOMALY":300.1861,"EPHEMERIS_TYPE":0,"CLASSIFICATION_TYPE":"U","NORAD_CAT_ID":56394,"ELEMENT_SET_NO":999,"REV_AT_EPOCH":577,"BSTAR":-0.00039115768,"MEAN_MOTION_DOT":-0.00010733,"MEAN_MOTION_DDOT":0}]
